[{"OBJECT_NAME":"STARLINK-1159","OBJECT_ID":"2020-006P","EPOCH":"2026-03-10T00:00:02.999808","MEAN_MOTION":15.81930134,"ECCENTRICITY":0.0001934,"INCLINATION":53.0438,"RA_OF_ASC_NODE":233.2103,"ARG_OF_PERICENTER":143.6489,"MEAN_ANOMALY":161.0887,"EPHEMERIS_TYPE":0,"CLASSIFICATION_TYPE":"U","NORAD_CAT_ID":45057,"ELEMENT_SET_NO":999,"REV_AT_EPOCH":599,"BSTAR":0.00093798588,"MEAN_MOTION_DOT":0.00198257,"MEAN_MOTION_DDOT":0},{"OBJECT_NAME":"STARLINK-36810","OBJECT_ID":"2026-035V","EPOCH":"2026-03-09T22:00:01.999584","MEAN_MOTION":15.86800377,"ECCENTRICITY":0.00013796,"INCLINATION":97.2675,"RA_OF_ASC_NODE":1.2856,"ARG_OF_PERICENTER":80.8671,"MEAN_ANOMALY":38.5488,"EPHEMERIS_TYPE":0,"CLASSIFICATION_TYPE":"U","NORAD_CAT_ID":67898,"ELEMENT_SET_NO":999,"REV_AT_EPOCH":379,"BSTAR":-0.0062567364,"MEAN_MOTION_DOT":-0.01391104,"MEAN_MOTION_DDOT":0}]
